{
  "type": "FeatureCollection",
  "features": [
    {
      "type": "Feature",
      "properties": {
        "norad_id": 38867,
        "name": "INTELSAT 23 (IS-23)",
        "group": "intelsat",
        "lat": 0.016083511464689414,
        "lon": 167.3422070667054,
        "alt_km": 35781.95717051342,
        "timestamp": "2025-12-04T09:47:37.190375+00:00",
        "meta_object_name": "INTELSAT 23 (IS-23)",
        "meta_object_id": "2012-057A",
        "meta_epoch": "2025-12-03T16:55:43.010688",
        "meta_mean_motion": 1.00269856,
        "meta_eccentricity": 0.00017576,
        "meta_inclination": 0.0469,
        "meta_ra_of_asc_node": 115.267,
        "meta_arg_of_pericenter": 102.0721,
        "meta_mean_anomaly": 56.377,
        "meta_ephemeris_type": 0,
        "meta_classification_type": "U",
        "meta_norad_cat_id": 38867,
        "meta_element_set_no": 999,
        "meta_rev_at_epoch": 4799,
        "meta_bstar": 0,
        "meta_mean_motion_dot": -2.67e-06,
        "meta_mean_motion_ddot": 0,
        "tle_line1": "1 38867U 12057A   25337.70535892 -.00000267  00000+0  00000+0 0  9990",
        "tle_line2": "2 38867   0.0469 115.2670 0001757 102.0721  56.3770  1.00269856 47992"
      },
      "geometry": {
        "type": "Point",
        "coordinates": [
          167.3422070667054,
          0.016083511464689414
        ]
      }
    },
    {
      "type": "Feature",
      "properties": {
        "norad_id": 39360,
        "name": "FM-6",
        "group": "intelsat",
        "lat": -0.004347928973221287,
        "lon": 104.17235394552088,
        "alt_km": 35782.35592357686,
        "timestamp": "2025-12-04T09:47:37.190387+00:00",
        "meta_object_name": "FM-6",
        "meta_object_id": "2013-058A",
        "meta_epoch": "2025-12-03T16:37:37.244352",
        "meta_mean_motion": 1.0027006,
        "meta_eccentricity": 0.00027851,
        "meta_inclination": 0.0139,
        "meta_ra_of_asc_node": 114.8388,
        "meta_arg_of_pericenter": 58.195,
        "meta_mean_anomaly": 32.9893,
        "meta_ephemeris_type": 0,
        "meta_classification_type": "U",
        "meta_norad_cat_id": 39360,
        "meta_element_set_no": 999,
        "meta_rev_at_epoch": 4411,
        "meta_bstar": 0,
        "meta_mean_motion_dot": 1e-08,
        "meta_mean_motion_ddot": 0,
        "tle_line1": "1 39360U 13058A   25337.69279218  .00000001  00000+0  00000+0 0  9991",
        "tle_line2": "2 39360   0.0139 114.8388 0002785  58.1950  32.9893  1.00270060 44119"
      },
      "geometry": {
        "type": "Point",
        "coordinates": [
          104.17235394552088,
          -0.004347928973221287
        ]
      }
    },
    {
      "type": "Feature",
      "properties": {
        "norad_id": 40271,
        "name": "INTELSAT 30 (IS-30)",
        "group": "intelsat",
        "lat": 0.022966703902973187,
        "lon": 125.3184174549029,
        "alt_km": 35783.33916970577,
        "timestamp": "2025-12-04T09:47:37.190399+00:00",
        "meta_object_name": "INTELSAT 30 (IS-30)",
        "meta_object_id": "2014-062A",
        "meta_epoch": "2025-12-03T19:56:38.900256",
        "meta_mean_motion": 1.00269713,
        "meta_eccentricity": 0.00011755,
        "meta_inclination": 0.0154,
        "meta_ra_of_asc_node": 13.9325,
        "meta_arg_of_pericenter": 63.6189,
        "meta_mean_anomaly": 199.4713,
        "meta_ephemeris_type": 0,
        "meta_classification_type": "U",
        "meta_norad_cat_id": 40271,
        "meta_element_set_no": 999,
        "meta_rev_at_epoch": 482,
        "meta_bstar": 0,
        "meta_mean_motion_dot": -1.34e-06,
        "meta_mean_motion_ddot": 0,
        "tle_line1": "1 40271U 14062A   25337.83100579 -.00000134  00000+0  00000+0 0  9997",
        "tle_line2": "2 40271   0.0154  13.9325 0001175  63.6189 199.4713  1.00269713  4823"
      },
      "geometry": {
        "type": "Point",
        "coordinates": [
          125.3184174549029,
          0.022966703902973187
        ]
      }
    },
    {
      "type": "Feature",
      "properties": {
        "norad_id": 40333,
        "name": "DIRECTV 14",
        "group": "intelsat",
        "lat": 0.016468782849170936,
        "lon": 121.14776973803252,
        "alt_km": 35785.69020633127,
        "timestamp": "2025-12-04T09:47:37.190411+00:00",
        "meta_object_name": "DIRECTV 14",
        "meta_object_id": "2014-078B",
        "meta_epoch": "2025-12-03T13:17:00.932928",
        "meta_mean_motion": 1.00273104,
        "meta_eccentricity": 5.997e-05,
        "meta_inclination": 0.0174,
        "meta_ra_of_asc_node": 324.7711,
        "meta_arg_of_pericenter": 245.1264,
        "meta_mean_anomaly": 322.7814,
        "meta_ephemeris_type": 0,
        "meta_classification_type": "U",
        "meta_norad_cat_id": 40333,
        "meta_element_set_no": 999,
        "meta_rev_at_epoch": 4008,
        "meta_bstar": 0,
        "meta_mean_motion_dot": -1.08e-06,
        "meta_mean_motion_ddot": 0,
        "tle_line1": "1 40333U 14078B   25337.55348302 -.00000108  00000+0  00000+0 0  9991",
        "tle_line2": "2 40333   0.0174 324.7711 0000599 245.1264 322.7814  1.00273104 40086"
      },
      "geometry": {
        "type": "Point",
        "coordinates": [
          121.14776973803252,
          0.016468782849170936
        ]
      }
    },
    {
      "type": "Feature",
      "properties": {
        "norad_id": 40663,
        "name": "DIRECTV 15",
        "group": "intelsat",
        "lat": 0.027290833140136257,
        "lon": 117.48552944189528,
        "alt_km": 35787.05644032801,
        "timestamp": "2025-12-04T09:47:37.190422+00:00",
        "meta_object_name": "DIRECTV 15",
        "meta_object_id": "2015-026A",
        "meta_epoch": "2025-12-03T16:41:14.396928",
        "meta_mean_motion": 1.00270168,
        "meta_eccentricity": 4.608e-05,
        "meta_inclination": 0.0439,
        "meta_ra_of_asc_node": 95.4072,
        "meta_arg_of_pericenter": 127.1851,
        "meta_mean_anomaly": 357.6265,
        "meta_ephemeris_type": 0,
        "meta_classification_type": "U",
        "meta_norad_cat_id": 40663,
        "meta_element_set_no": 999,
        "meta_rev_at_epoch": 3850,
        "meta_bstar": 0,
        "meta_mean_motion_dot": -8.5e-07,
        "meta_mean_motion_ddot": 0,
        "tle_line1": "1 40663U 15026A   25337.69530552 -.00000085  00000+0  00000+0 0  9990",
        "tle_line2": "2 40663   0.0439  95.4072 0000460 127.1851 357.6265  1.00270168 38504"
      },
      "geometry": {
        "type": "Point",
        "coordinates": [
          117.48552944189528,
          0.027290833140136257
        ]
      }
    },
    {
      "type": "Feature",
      "properties": {
        "norad_id": 40664,
        "name": "SKY MEXICO-1",
        "group": "intelsat",
        "lat": 0.0072883470978586115,
        "lon": 141.5775401454766,
        "alt_km": 35793.22610406176,
        "timestamp": "2025-12-04T09:47:37.190433+00:00",
        "meta_object_name": "SKY MEXICO-1",
        "meta_object_id": "2015-026B",
        "meta_epoch": "2025-12-03T13:22:52.871232",
        "meta_mean_motion": 1.00270473,
        "meta_eccentricity": 0.00027742,
        "meta_inclination": 0.0171,
        "meta_ra_of_asc_node": 337.602,
        "meta_arg_of_pericenter": 288.9303,
        "meta_mean_anomaly": 288.0745,
        "meta_ephemeris_type": 0,
        "meta_classification_type": "U",
        "meta_norad_cat_id": 40664,
        "meta_element_set_no": 999,
        "meta_rev_at_epoch": 3849,
        "meta_bstar": 0,
        "meta_mean_motion_dot": -2.16e-06,
        "meta_mean_motion_ddot": 0,
        "tle_line1": "1 40664U 15026B   25337.55755638 -.00000216  00000+0  00000+0 0  9996",
        "tle_line2": "2 40664   0.0171 337.6020 0002774 288.9303 288.0745  1.00270473 38497"
      },
      "geometry": {
        "type": "Point",
        "coordinates": [
          141.5775401454766,
          0.0072883470978586115
        ]
      }
    },
    {
      "type": "Feature",
      "properties": {
        "norad_id": 40874,
        "name": "INTELSAT 34 (IS-34)",
        "group": "intelsat",
        "lat": -0.019219756757457355,
        "lon": 164.8611347079306,
        "alt_km": 35784.521378533434,
        "timestamp": "2025-12-04T09:47:37.190445+00:00",
        "meta_object_name": "INTELSAT 34 (IS-34)",
        "meta_object_id": "2015-039A",
        "meta_epoch": "2025-12-03T21:13:12.575712",
        "meta_mean_motion": 1.00270047,
        "meta_eccentricity": 5.075e-05,
        "meta_inclination": 0.0115,
        "meta_ra_of_asc_node": 306.0047,
        "meta_arg_of_pericenter": 225.7354,
        "meta_mean_anomaly": 164.028,
        "meta_ephemeris_type": 0,
        "meta_classification_type": "U",
        "meta_norad_cat_id": 40874,
        "meta_element_set_no": 999,
        "meta_rev_at_epoch": 3766,
        "meta_bstar": 0,
        "meta_mean_motion_dot": -2.68e-06,
        "meta_mean_motion_ddot": 0,
        "tle_line1": "1 40874U 15039A   25337.88417333 -.00000268  00000+0  00000+0 0  9993",
        "tle_line2": "2 40874   0.0115 306.0047 0000507 225.7354 164.0280  1.00270047 37666"
      },
      "geometry": {
        "type": "Point",
        "coordinates": [
          164.8611347079306,
          -0.019219756757457355
        ]
      }
    }
  ]
}